NORAD_CAT_ID,OBJECT_NAME,OBJECT_TYPE,EPOCH,MEAN_MOTION,ECCENTRICITY,INCLINATION,RA_OF_ASC_NODE,ARG_OF_PERICENTER,MEAN_ANOMALY,BSTAR,MEAN_MOTION_DOT,MEAN_MOTION_DDOT,TLE_LINE0,TLE_LINE1,TLE_LINE2,SEMIMAJOR_AXIS,PERIOD,APOGEE,PERIGEE,DECAYED
50197.0,STARLINK-3267,PAYLOAD,2022-09-29 20:29:00,15.08858324,0.0001727,53.2168,121.2871,60.8065,299.31,0.00019525,2.822e-05,0.0,0 STARLINK-3267,1 50197U 21125AT  22272.85347405  .00002822  00000-0  19525-3 0  9993,2 50197  53.2168 121.2871 0001727  60.8065 299.3100 15.08858324 47046,6917.824000000001,95.436,540.884,538.495,0.0
50197.0,STARLINK-3267,PAYLOAD,2022-09-30 04:25:56,15.08847872,0.0001783,53.2169,119.8001,59.0986,301.0181,6.4334e-05,7.36e-06,0.0,0 STARLINK-3267,1 50197U 21125AT  22273.18467810  .00000736  00000-0  64334-4 0  9994,2 50197  53.2169 119.8001 0001783  59.0986 301.0181 15.08847872 46561,6917.856,95.437,540.955,538.488,0.0
50197.0,STARLINK-3267,PAYLOAD,2022-09-30 10:47:28,15.08852277,0.0001656,53.2167,118.6105,62.2346,297.8813,0.00011701,1.575e-05,0.0,0 STARLINK-3267,1 50197U 21125AT  22273.44963440  .00001575  00000-0  11701-3 0  9994,2 50197  53.2167 118.6105 0001656  62.2346 297.8813 15.08852277 47139,6917.843000000003,95.437,540.8530000000002,538.562,0.0
50197.0,STARLINK-3267,PAYLOAD,2022-09-30 20:19:47,15.08855906,0.0001733,53.2168,116.8267,58.5772,301.5389,0.00025012,3.697e-05,0.0,0 STARLINK-3267,1 50197U 21125AT  22273.84707185  .00003697  00000-0  25012-3 0  9997,2 50197  53.2168 116.8267 0001733  58.5772 301.5389 15.08855906 47195,6917.831999999999,95.437,540.896,538.498,0.0
50197.0,STARLINK-3267,PAYLOAD,2022-10-01 12:13:38,15.08850488,0.0001657,53.217,113.8531,60.4811,299.6346,0.0001413,1.962e-05,0.0,0 STARLINK-3267,1 50197U 21125AT  22274.50947121  .00001962  00000-0  14130-3 0  9999,2 50197  53.2170 113.8531 0001657  60.4811 299.6346 15.08850488 46762,6917.848000000001,95.437,540.86,538.567,0.0
50197.0,STARLINK-3267,PAYLOAD,2022-10-01 13:49:01,15.08851828,0.000168,53.217,113.5557,60.2679,299.848,0.00012792,1.749e-05,0.0,0 STARLINK-3267,1 50197U 21125AT  22274.57571010  .00001749  00000-0  12792-3 0  9991,2 50197  53.2170 113.5557 0001680  60.2679 299.8480 15.08851828 47304,6917.844,95.437,540.871,538.547,0.0
50197.0,STARLINK-3267,PAYLOAD,2022-10-01 18:35:11,15.08842454,0.0001625,53.2171,112.6634,57.4246,302.6903,-2.741300000000001e-05,-7.24e-06,0.0,0 STARLINK-3267,1 50197U 21125AT  22274.77443395 -.00000724  00000-0 -27413-4 0  9998,2 50197  53.2171 112.6634 0001625  57.4246 302.6903 15.08842454 46800,6917.873000000001,95.437,540.862,538.614,0.0
50197.0,STARLINK-3267,PAYLOAD,2022-10-01 20:10:34,15.08840961,0.0001579,53.2172,112.3659,60.0203,300.0946,-3.7116e-05,-8.79e-06,0.0,0 STARLINK-3267,1 50197U 21125AT  22274.84067441 -.00000879  00000-0 -37116-4 0  9992,2 50197  53.2172 112.3659 0001579  60.0203 300.0946 15.08840961 47346,6917.877,95.437,540.835,538.65,0.0
50197.0,STARLINK-3267,PAYLOAD,2022-10-02 12:04:26,15.08831905,0.0001598,53.2173,109.3925,57.8036,302.3111,-8.6604e-05,-1.666e-05,0.0,0 STARLINK-3267,1 50197U 21125AT  22275.50307881 -.00001666  00000-0 -86604-4 0  9992,2 50197  53.2173 109.3925 0001598  57.8036 302.3111 15.08831905 47446,6917.905,95.438,540.876,538.665,0.0
50197.0,STARLINK-3267,PAYLOAD,2022-10-02 20:01:21,15.08835504,0.0001512,53.218,107.9057,68.6701,291.4452,-3.3299e-05,-8.18e-06,0.0,0 STARLINK-3267,1 50197U 21125AT  22275.83428233 -.00000818  00000-0 -33299-4 0  9993,2 50197  53.2180 107.9057 0001512  68.6701 291.4452 15.08835504 47499,6917.894,95.438,540.805,538.7130000000002,0.0
50197.0,STARLINK-3267,PAYLOAD,2022-10-03 11:55:13,15.08842045,0.0001605,53.2179,104.9319,57.157,302.9576,0.00010186,1.334e-05,0.0,0 STARLINK-3267,1 50197U 21125AT  22276.49667830  .00001334  00000-0  10186-3 0  9995,2 50197  53.2179 104.9319 0001605  57.1570 302.9576 15.08842045 47061,6917.874,95.437,540.849,538.629,0.0
50197.0,STARLINK-3267,PAYLOAD,2022-10-03 13:30:36,15.08843947,0.0001598,53.2179,104.6346,58.624,301.4909,0.00010997,1.463e-05,0.0,0 STARLINK-3267,1 50197U 21125AT  22276.56291703  .00001463  00000-0  10997-3 0  9998,2 50197  53.2179 104.6346 0001598  58.6240 301.4909 15.08843947 47605,6917.868,95.437,540.839,538.628,0.0
50197.0,STARLINK-3267,PAYLOAD,2022-10-03 19:52:08,15.08849081,0.0001652,53.2173,103.4453,57.7168,302.3984,0.00021676,3.164e-05,0.0,0 STARLINK-3267,1 50197U 21125AT  22276.82787468  .00003164  00000-0  21676-3 0  9991,2 50197  53.2173 103.4453 0001652  57.7168 302.3984 15.08849081 47647,6917.853,95.437,540.86,538.575,0.0
50197.0,STARLINK-3267,PAYLOAD,2022-10-04 11:45:59,15.08845406,0.0001659,53.2172,100.4719,57.1155,302.9996,0.00020469,2.972e-05,0.0,0 STARLINK-3267,1 50197U 21125AT  22277.49027620  .00002972  00000-0  20469-3 0  9997,2 50197  53.2172 100.4719 0001659  57.1155 302.9996 15.08845406 47742,6917.864000000001,95.437,540.877,538.581,0.0
50197.0,STARLINK-3267,PAYLOAD,2022-10-04 13:21:22,15.08846774,0.0001651,53.2171,100.1745,57.3844,302.7308,0.00022177,3.244e-05,0.0,0 STARLINK-3267,1 50197U 21125AT  22277.55651548  .00003244  00000-0  22177-3 0  9997,2 50197  53.2171 100.1745 0001651  57.3844 302.7308 15.08846774 47223,6917.86,95.437,540.867,538.5830000000002,0.0
50197.0,STARLINK-3267,PAYLOAD,2022-10-04 19:42:55,15.08842543,0.0001648,53.2171,98.9852,57.3484,302.7667,6.082e-05,6.8e-06,0.0,0 STARLINK-3267,1 50197U 21125AT  22277.82147594  .00000680  00000-0  60820-4 0  9997,2 50197  53.2171  98.9852 0001648  57.3484 302.7667 15.08842543 47792,6917.873000000001,95.437,540.878,538.5980000000002,0.0
50197.0,STARLINK-3267,PAYLOAD,2022-10-05 05:15:14,15.08839009,0.0001674,53.2175,97.2006,57.2005,302.9148,6.951e-05,8.18e-06,0.0,0 STARLINK-3267,1 50197U 21125AT  22278.21891875  .00000818  00000-0  69510-4 0  9997,2 50197  53.2175  97.2006 0001674  57.2005 302.9148 15.08839009 47324,6917.8830000000025,95.438,540.906,538.59,0.0
50197.0,STARLINK-3267,PAYLOAD,2022-10-05 13:12:10,15.08842282,0.0001564,53.2182,95.7135,58.0753,302.0391,8.7156e-05,1.099e-05,0.0,0 STARLINK-3267,1 50197U 21125AT  22278.55011847  .00001099  00000-0  87156-4 0  9995,2 50197  53.2182  95.7135 0001564  58.0753 302.0391 15.08842282 47907,6917.873000000001,95.437,540.82,538.656,0.0
50197.0,STARLINK-3267,PAYLOAD,2022-10-05 17:58:20,15.08836083,0.0001638,53.2181,94.8213,58.1311,301.9840000000001,-6.721599999999999e-06,-3.95e-06,0.0,0 STARLINK-3267,1 50197U 21125AT  22278.74884539 -.00000395  00000-0 -67216-5 0  9998,2 50197  53.2181  94.8213 0001638  58.1311 301.9840 15.08836083 47400,6917.892,95.438,540.891,538.624,0.0
50197.0,STARLINK-3267,PAYLOAD,2022-10-05 21:09:06,15.08836984,0.000165,53.2182,94.2265,57.5902,302.5249,-5.6279e-06,-3.78e-06,0.0,0 STARLINK-3267,1 50197U 21125AT  22278.88132506 -.00000378  00000-0 -56279-5 0  9991,2 50197  53.2182  94.2265 0001650  57.5902 302.5249 15.08836984 47955,6917.89,95.438,540.896,538.613,0.0
50197.0,STARLINK-3267,PAYLOAD,2022-10-06 11:27:33,15.0884729,0.0001829,53.2174,91.5506,56.5337,303.583,0.00015291,2.147e-05,0.0,0 STARLINK-3267,1 50197U 21125AT  22279.47747673  .00002147  00000-0  15291-3 0  9995,2 50197  53.2174  91.5506 0001829  56.5337 303.5830 15.08847290 48043,6917.858,95.437,540.988,538.4580000000002,0.0
50197.0,STARLINK-3267,PAYLOAD,2022-10-06 17:49:07,15.08830958,0.0001834,53.2176,90.3615,51.2495,308.8661,-3.1917e-05,-7.96e-06,0.0,0 STARLINK-3267,1 50197U 21125AT  22279.74244606 -.00000796  00000-0 -31917-4 0  9997,2 50197  53.2176  90.3615 0001834  51.2495 308.8661 15.08830958 48083,6917.908,95.438,541.0419999999998,538.504,0.0
50197.0,STARLINK-3267,PAYLOAD,2022-10-07 06:32:13,15.08824204,0.0001833,53.2176,87.9831,53.7802,306.336,-2.4281e-05,-6.74e-06,0.0,0 STARLINK-3267,1 50197U 21125AT  22280.27237447 -.00000674  00000-0 -24281-4 0  9993,2 50197  53.2176  87.9831 0001833  53.7802 306.3360 15.08824204 47639,6917.929,95.439,541.062,538.526,0.0
50197.0,STARLINK-3267,PAYLOAD,2022-10-07 17:39:54,15.08837409,0.0001825,53.2178,85.9015,53.8585,306.2576,0.00013991,1.939e-05,0.0,0 STARLINK-3267,1 50197U 21125AT  22280.73605134  .00001939  00000-0  13991-3 0  9994,2 50197  53.2178  85.9015 0001825  53.8585 306.2576 15.08837409 47700,6917.888000000001,95.438,541.016,538.491,0.0
50197.0,STARLINK-3267,PAYLOAD,2022-10-08 11:09:09,15.08851336,0.0001953,53.2173,82.63,53.9042,306.2131,0.00058472,9.033e-05,0.0,0 STARLINK-3267,1 50197U 21125AT  22281.46469179  .00009033  00000-0  58472-3 0  9998,2 50197  53.2173  82.6300 0001953  53.9042 306.2131 15.08851336 48340,6917.846,95.437,541.062,538.36,0.0
50197.0,STARLINK-3267,PAYLOAD,2022-10-08 17:30:41,15.08862877,0.0001906999999999,53.2173,81.4394,53.9696,306.1473,0.00083076,0.00012967,0.0,0 STARLINK-3267,1 50197U 21125AT  22281.72964889  .00012967  00000-0  83076-3 0  9993,2 50197  53.2173  81.4394 0001907  53.9696 306.1473 15.08862877 47859,6917.81,95.436,540.995,538.356,0.0
50197.0,STARLINK-3267,PAYLOAD,2022-10-09 10:59:55,15.08864415,0.0001986,53.2175,78.1689,52.6146,307.5027,0.00070857,0.00011014,0.0,0 STARLINK-3267,1 50197U 21125AT  22282.45828380  .00011014  00000-0  70857-3 0  9994,2 50197  53.2175  78.1689 0001986  52.6146 307.5027 15.08864415 47966,6917.806,95.436,541.045,538.297,0.0
50197.0,STARLINK-3267,PAYLOAD,2022-10-09 17:21:28,15.08860791,0.0001908,53.2183,76.9776,55.2824,304.8348,0.00050652,7.787e-05,0.0,0 STARLINK-3267,1 50197U 21125AT  22282.72324090  .00007787  00000-0  50652-3 0  9996,2 50197  53.2183  76.9776 0001908  55.2824 304.8348 15.08860791 48537,6917.816999999999,95.436,541.002,538.362,0.0
50197.0,STARLINK-3267,PAYLOAD,2022-10-10 02:53:46,15.08859975,0.0001950999999999,53.2178,75.1947,46.3675,313.7478,0.00036703,5.561e-05,0.0,0 STARLINK-3267,1 50197U 21125AT  22283.12067780  .00005561  00000-0  36703-3 0  9990,2 50197  53.2178  75.1947 0001951  46.3675 313.7478 15.08859975 48068,6917.819,95.436,541.034,538.335,0.0
